{
  "norad_id": 59316,
  "name": "STARLINK-31479",
  "history": [
    {
      "epoch": "2026-03-28T13:30:45.438624",
      "apogee_km": 483.664704689083,
      "perigee_km": 482.4159704136482,
      "latitude_deg": -25.52392293274729,
      "longitude_deg": 165.65048736007884,
      "semi_major_axis_km": 6861.177337551365,
      "eccentricity": 9.1e-05,
      "inclination_deg": 43.003,
      "raan_deg": 128.1897,
      "arg_perigee_deg": 247.3599,
      "mean_anomaly_deg": 112.7156,
      "mean_motion_rev_day": 15.27582925
    }
  ]
}